{"fetched_at":"2026-07-18T06:27:49.000Z","source":"https://celestrak.org/NORAD/elements/gp.php?GROUP=qianfan&FORMAT=JSON","constellation":"qianfan","records":[{"OBJECT_NAME":"QIANFAN-193","OBJECT_ID":"2026-125L","EPOCH":"2026-07-17T21:08:42.718272","CLASSIFICATION_TYPE":"U","MEAN_MOTION":13.90949748,"ECCENTRICITY":0.00164337,"INCLINATION":88.9942,"RA_OF_ASC_NODE":276.9799,"ARG_OF_PERICENTER":69.7109,"MEAN_ANOMALY":290.5829,"EPHEMERIS_TYPE":0,"NORAD_CAT_ID":69411,"ELEMENT_SET_NO":999,"REV_AT_EPOCH":604,"BSTAR":-1.7051207,"MEAN_MOTION_DOT":-0.01992872,"MEAN_MOTION_DDOT":0},{"OBJECT_NAME":"QIANFAN-194","OBJECT_ID":"2026-125M","EPOCH":"2026-07-17T21:03:03.446208","CLASSIFICATION_TYPE":"U","MEAN_MOTION":13.91847361,"ECCENTRICITY":0.00190864,"INCLINATION":88.9939,"RA_OF_ASC_NODE":276.9798,"ARG_OF_PERICENTER":78.1356,"MEAN_ANOMALY":282.1958,"EPHEMERIS_TYPE":0,"NORAD_CAT_ID":69412,"ELEMENT_SET_NO":999,"REV_AT_EPOCH":603,"BSTAR":-1.7289528,"MEAN_MOTION_DOT":-0.02049043,"MEAN_MOTION_DDOT":0},{"OBJECT_NAME":"QIANFAN-195","OBJECT_ID":"2026-125N","EPOCH":"2026-07-17T21:58:29.827200","CLASSIFICATION_TYPE":"U","MEAN_MOTION":13.94901662,"ECCENTRICITY":0.00207248,"INCLINATION":88.9944,"RA_OF_ASC_NODE":276.9642,"ARG_OF_PERICENTER":59.0684,"MEAN_ANOMALY":301.2525,"EPHEMERIS_TYPE":0,"NORAD_CAT_ID":69413,"ELEMENT_SET_NO":999,"REV_AT_EPOCH":605,"BSTAR":-1.6927353,"MEAN_MOTION_DOT":-0.02111335,"MEAN_MOTION_DDOT":0},{"OBJECT_NAME":"QIANFAN-196","OBJECT_ID":"2026-125P","EPOCH":"2026-07-17T22:02:07.645920","CLASSIFICATION_TYPE":"U","MEAN_MOTION":13.9230184,"ECCENTRICITY":0.0021117,"INCLINATION":88.9934,"RA_OF_ASC_NODE":276.9647,"ARG_OF_PERICENTER":75.4806,"MEAN_ANOMALY":284.8709,"EPHEMERIS_TYPE":0,"NORAD_CAT_ID":69414,"ELEMENT_SET_NO":999,"REV_AT_EPOCH":605,"BSTAR":-1.6874208,"MEAN_MOTION_DOT":-0.02018474,"MEAN_MOTION_DDOT":0},{"OBJECT_NAME":"QIANFAN-197","OBJECT_ID":"2026-125Q","EPOCH":"2026-07-17T21:48:51.380064","CLASSIFICATION_TYPE":"U","MEAN_MOTION":13.94017507,"ECCENTRICITY":0.00209103,"INCLINATION":88.9942,"RA_OF_ASC_NODE":276.9659,"ARG_OF_PERICENTER":77.0099,"MEAN_ANOMALY":283.3409,"EPHEMERIS_TYPE":0,"NORAD_CAT_ID":69415,"ELEMENT_SET_NO":999,"REV_AT_EPOCH":604,"BSTAR":-1.4903697,"MEAN_MOTION_DOT":-0.01828013,"MEAN_MOTION_DDOT":0},{"OBJECT_NAME":"QIANFAN-198","OBJECT_ID":"2026-125R","EPOCH":"2026-07-17T22:05:41.519616","CLASSIFICATION_TYPE":"U","MEAN_MOTION":13.93939862,"ECCENTRICITY":0.00198379,"INCLINATION":88.9934,"RA_OF_ASC_NODE":276.9671,"ARG_OF_PERICENTER":62.8465,"MEAN_ANOMALY":297.473,"EPHEMERIS_TYPE":0,"NORAD_CAT_ID":69416,"ELEMENT_SET_NO":999,"REV_AT_EPOCH":605,"BSTAR":-1.6566289,"MEAN_MOTION_DOT":-0.02037041,"MEAN_MOTION_DDOT":0},{"OBJECT_NAME":"QIANFAN-199","OBJECT_ID":"2026-125S","EPOCH":"2026-07-17T22:27:23.408640","CLASSIFICATION_TYPE":"U","MEAN_MOTION":13.9817204,"ECCENTRICITY":0.0020735,"INCLINATION":88.9943,"RA_OF_ASC_NODE":276.9517,"ARG_OF_PERICENTER":61.7138,"MEAN_ANOMALY":298.6129,"EPHEMERIS_TYPE":0,"NORAD_CAT_ID":69417,"ELEMENT_SET_NO":999,"REV_AT_EPOCH":606,"BSTAR":-1.5461712,"MEAN_MOTION_DOT":-0.02046995,"MEAN_MOTION_DDOT":0},{"OBJECT_NAME":"QIANFAN-200","OBJECT_ID":"2026-125T","EPOCH":"2026-07-17T21:47:38.836032","CLASSIFICATION_TYPE":"U","MEAN_MOTION":13.8977798,"ECCENTRICITY":0.00143316,"INCLINATION":88.993,"RA_OF_ASC_NODE":276.9833,"ARG_OF_PERICENTER":71.1337,"MEAN_ANOMALY":289.1388,"EPHEMERIS_TYPE":0,"NORAD_CAT_ID":69418,"ELEMENT_SET_NO":999,"REV_AT_EPOCH":604,"BSTAR":-1.7844731,"MEAN_MOTION_DOT":-0.02040003,"MEAN_MOTION_DDOT":0},{"OBJECT_NAME":"QIANFAN-201","OBJECT_ID":"2026-153A","EPOCH":"2026-07-17T20:09:13.631040","CLASSIFICATION_TYPE":"U","MEAN_MOTION":14.2548123,"ECCENTRICITY":0.00061997,"INCLINATION":88.9972,"RA_OF_ASC_NODE":358.7543,"ARG_OF_PERICENTER":157.8285,"MEAN_ANOMALY":202.3177,"EPHEMERIS_TYPE":0,"NORAD_CAT_ID":69800,"ELEMENT_SET_NO":999,"REV_AT_EPOCH":192,"BSTAR":0.000017182966,"MEAN_MOTION_DOT":5.5e-7,"MEAN_MOTION_DDOT":0},{"OBJECT_NAME":"QIANFAN-202","OBJECT_ID":"2026-153B","EPOCH":"2026-07-17T22:23:05.020800","CLASSIFICATION_TYPE":"U","MEAN_MOTION":14.18843511,"ECCENTRICITY":0.00069698,"INCLINATION":88.9926,"RA_OF_ASC_NODE":358.7377,"ARG_OF_PERICENTER":166.062,"MEAN_ANOMALY":194.0763,"EPHEMERIS_TYPE":0,"NORAD_CAT_ID":69801,"ELEMENT_SET_NO":999,"REV_AT_EPOCH":193,"BSTAR":0.00004136479,"MEAN_MOTION_DOT":0.000001,"MEAN_MOTION_DDOT":0},{"OBJECT_NAME":"QIANFAN-203","OBJECT_ID":"2026-153C","EPOCH":"2026-07-17T22:12:56.169504","CLASSIFICATION_TYPE":"U","MEAN_MOTION":14.22391056,"ECCENTRICITY":0.00076129,"INCLINATION":88.9925,"RA_OF_ASC_NODE":358.7366,"ARG_OF_PERICENTER":175.0675,"MEAN_ANOMALY":185.0592,"EPHEMERIS_TYPE":0,"NORAD_CAT_ID":69802,"ELEMENT_SET_NO":999,"REV_AT_EPOCH":193,"BSTAR":0.000033351128,"MEAN_MOTION_DOT":8.9e-7,"MEAN_MOTION_DDOT":0},{"OBJECT_NAME":"QIANFAN-204","OBJECT_ID":"2026-153D","EPOCH":"2026-07-17T22:17:31.682688","CLASSIFICATION_TYPE":"U","MEAN_MOTION":14.20114361,"ECCENTRICITY":0.00079271,"INCLINATION":88.9926,"RA_OF_ASC_NODE":358.737,"ARG_OF_PERICENTER":169.6418,"MEAN_ANOMALY":190.4937,"EPHEMERIS_TYPE":0,"NORAD_CAT_ID":69803,"ELEMENT_SET_NO":999,"REV_AT_EPOCH":193,"BSTAR":0.000038983534,"MEAN_MOTION_DOT":9.8e-7,"MEAN_MOTION_DDOT":0},{"OBJECT_NAME":"QIANFAN-205","OBJECT_ID":"2026-153E","EPOCH":"2026-07-17T22:14:58.630272","CLASSIFICATION_TYPE":"U","MEAN_MOTION":14.22264721,"ECCENTRICITY":0.00078179,"INCLINATION":88.9924,"RA_OF_ASC_NODE":358.7365,"ARG_OF_PERICENTER":173.6212,"MEAN_ANOMALY":186.508,"EPHEMERIS_TYPE":0,"NORAD_CAT_ID":69804,"ELEMENT_SET_NO":999,"REV_AT_EPOCH":193,"BSTAR":0.000036474602,"MEAN_MOTION_DOT":9.6e-7,"MEAN_MOTION_DDOT":0},{"OBJECT_NAME":"QIANFAN-206","OBJECT_ID":"2026-153F","EPOCH":"2026-07-17T22:01:14.422656","CLASSIFICATION_TYPE":"U","MEAN_MOTION":14.24034614,"ECCENTRICITY":0.00083022,"INCLINATION":88.9925,"RA_OF_ASC_NODE":358.7352,"ARG_OF_PERICENTER":174.2829,"MEAN_ANOMALY":185.8459,"EPHEMERIS_TYPE":0,"NORAD_CAT_ID":69805,"ELEMENT_SET_NO":999,"REV_AT_EPOCH":193,"BSTAR":0.000012897484,"MEAN_MOTION_DOT":4.4e-7,"MEAN_MOTION_DDOT":0},{"OBJECT_NAME":"QIANFAN-207","OBJECT_ID":"2026-153G","EPOCH":"2026-07-17T21:58:51.860928","CLASSIFICATION_TYPE":"U","MEAN_MOTION":14.24250974,"ECCENTRICITY":0.00077399,"INCLINATION":88.9925,"RA_OF_ASC_NODE":358.735,"ARG_OF_PERICENTER":174.3025,"MEAN_ANOMALY":185.8257,"EPHEMERIS_TYPE":0,"NORAD_CAT_ID":69806,"ELEMENT_SET_NO":999,"REV_AT_EPOCH":193,"BSTAR":0.000058423062,"MEAN_MOTION_DOT":0.00000149,"MEAN_MOTION_DDOT":0},{"OBJECT_NAME":"QIANFAN-208","OBJECT_ID":"2026-153H","EPOCH":"2026-07-17T21:54:54.609120","CLASSIFICATION_TYPE":"U","MEAN_MOTION":14.25462597,"ECCENTRICITY":0.00085338,"INCLINATION":88.9925,"RA_OF_ASC_NODE":358.7345,"ARG_OF_PERICENTER":175.0693,"MEAN_ANOMALY":185.0586,"EPHEMERIS_TYPE":0,"NORAD_CAT_ID":69807,"ELEMENT_SET_NO":999,"REV_AT_EPOCH":193,"BSTAR":0.000057386105,"MEAN_MOTION_DOT":0.0000015,"MEAN_MOTION_DDOT":0}]}
