QIANFAN-193             
1 69411U 26125L   26198.88104998 -.01992872  00000+0 -17051+1 0  9993
2 69411  88.9942 276.9799 0016433  69.7109 290.5829 13.90949748  6040
QIANFAN-194             
1 69412U 26125M   26198.87712322 -.02049043  00000+0 -17290+1 0  9998
2 69412  88.9939 276.9798 0019086  78.1356 282.1958 13.91847361  6039
QIANFAN-195             
1 69413U 26125N   26198.91562300 -.02111335  00000+0 -16927+1 0  9993
2 69413  88.9944 276.9642 0020724  59.0684 301.2525 13.94901662  6050
QIANFAN-196             
1 69414U 26125P   26198.91814405 -.02018474  00000+0 -16874+1 0  9991
2 69414  88.9934 276.9647 0021117  75.4806 284.8709 13.92301840  6050
QIANFAN-197             
1 69415U 26125Q   26198.90892801 -.01828013  00000+0 -14904+1 0  9996
2 69415  88.9942 276.9659 0020910  77.0099 283.3409 13.94017507  6041
QIANFAN-198             
1 69416U 26125R   26198.92061944 -.02037041  00000+0 -16566+1 0  9995
2 69416  88.9934 276.9671 0019837  62.8465 297.4730 13.93939862  6052
QIANFAN-199             
1 69417U 26125S   26198.93568760 -.02046995  00000+0 -15462+1 0  9997
2 69417  88.9943 276.9517 0020735  61.7138 298.6129 13.98172040  6064
QIANFAN-200             
1 69418U 26125T   26198.90808838 -.02040003  00000+0 -17845+1 0  9999
2 69418  88.9930 276.9833 0014331  71.1337 289.1388 13.89777980  6047
QIANFAN-201             
1 69800U 26153A   26198.83974110  .00000055  00000+0  17183-4 0  9992
2 69800  88.9972 358.7543 0006199 157.8285 202.3177 14.25481230  1928
QIANFAN-202             
1 69801U 26153B   26198.93269700  .00000100  00000+0  41365-4 0  9996
2 69801  88.9926 358.7377 0006969 166.0620 194.0763 14.18843511  1938
QIANFAN-203             
1 69802U 26153C   26198.92565011  .00000089  00000+0  33351-4 0  9992
2 69802  88.9925 358.7366 0007612 175.0675 185.0592 14.22391056  1939
QIANFAN-204             
1 69803U 26153D   26198.92883892  .00000098  00000+0  38984-4 0  9990
2 69803  88.9926 358.7370 0007927 169.6418 190.4937 14.20114361  1932
QIANFAN-205             
1 69804U 26153E   26198.92706748  .00000096  00000+0  36475-4 0  9996
2 69804  88.9924 358.7365 0007817 173.6212 186.5080 14.22264721  1933
QIANFAN-206             
1 69805U 26153F   26198.91752804  .00000044  00000+0  12897-4 0  9995
2 69805  88.9925 358.7352 0008302 174.2829 185.8459 14.24034614  1932
QIANFAN-207             
1 69806U 26153G   26198.91587802  .00000149  00000+0  58423-4 0  9991
2 69806  88.9925 358.7350 0007739 174.3025 185.8257 14.24250974  1938
QIANFAN-208             
1 69807U 26153H   26198.91313205  .00000150  00000+0  57386-4 0  9995
2 69807  88.9925 358.7345 0008533 175.0693 185.0586 14.25462597  1939
